OBJECT_NAME,OBJECT_ID,EPOCH,MEAN_MOTION,ECCENTRICITY,INCLINATION,RA_OF_ASC_NODE,ARG_OF_PERICENTER,MEAN_ANOMALY,EPHEMERIS_TYPE,CLASSIFICATION_TYPE,NORAD_CAT_ID,ELEMENT_SET_NO,REV_AT_EPOCH,BSTAR,MEAN_MOTION_DOT,MEAN_MOTION_DDOT
STARLINK-4608,2022-104AK,2025-07-28T14:04:19.603200,15.08842488,.0001522,53.2178,160.1164,88.5365,271.5801,0,U,53621,999,16180,-.44063E-5,-.358E-5,0
STARLINK-4568,2022-104AL,2025-07-28T08:30:25.025184,15.08836694,.0001412,53.2177,160.8063,88.5970,271.5184,0,U,53622,999,16188,-.18672E-5,-.318E-5,0
STARLINK-4573,2022-104AM,2025-07-28T05:56:47.408352,15.08839372,.0001287,53.2164,161.5575,77.4436,282.6700,0,U,53623,999,16186,.75644E-4,.916E-5,0
STARLINK-4596,2022-104AN,2025-07-28T13:37:47.944128,15.08836123,.0001308,53.2160,160.0008,84.8808,275.2334,0,U,53624,999,16123,.17904E-4,-.3E-7,0
STARLINK-4554,2022-104AQ,2025-07-28T13:21:52.802496,15.08837928,.0001515,53.2173,159.9335,84.2844,275.8321,0,U,53626,999,16192,.26784E-4,.138E-5,0
STARLINK-4595,2022-104AR,2025-07-29T03:50:59.036928,15.08824530,.0001493,53.2182,157.3037,92.9144,267.2019,0,U,53627,999,16132,-.57414E-4,-.1201E-4,0
STARLINK-4600,2022-104AS,2025-07-28T03:38:57.293664,15.08835742,.0001585,53.2170,161.6727,89.9924,270.1250,0,U,53628,999,16186,-.1516E-4,-.529E-5,0
STARLINK-4602,2022-104AT,2025-07-28T07:05:38.673600,15.08835006,.0001375,53.2173,161.1427,84.5106,275.6043,0,U,53629,999,16188,.10115E-4,-.127E-5,0
STARLINK-4598,2022-104AU,2025-07-29T04:36:07.148160,15.08838242,.0001296,53.2166,147.5139,90.0867,270.0274,0,U,53630,999,16146,.4739E-4,.466E-5,0
STARLINK-4599,2022-104AV,2025-07-28T08:19:47.922816,15.08841286,.0001426,53.2162,160.7567,83.3810,276.7344,0,U,53631,999,16189,.37695E-4,.312E-5,0
STARLINK-4606,2022-104AW,2025-07-28T02:57:57.443328,15.08838343,.0001631,53.2169,152.2219,74.7428,285.3744,0,U,53632,999,16232,.50497E-5,-.208E-5,0
STARLINK-4593,2022-104AX,2025-07-28T03:03:15.876576,15.08835594,.0001483,53.2163,152.2446,57.5148,302.5988,0,U,53633,999,16199,.42124E-5,-.221E-5,0
STARLINK-4592,2022-104AY,2025-07-29T02:38:07.740384,15.08838795,.0001402,53.2172,147.7162,92.3589,267.7563,0,U,53634,999,16145,.326E-5,-.236E-5,0
STARLINK-4587,2022-104AZ,2025-07-28T02:52:39.458496,15.08842227,.000143,53.2167,152.2007,85.6720,274.4435,0,U,53635,999,16232,-.68926E-4,-.1385E-4,0
STARLINK-4586,2022-104BA,2025-07-29T02:27:32.264928,15.08901119,.0001235,53.2185,147.6716,82.9348,277.1785,0,U,53636,999,16145,.14717E-2,.23251E-3,0
STARLINK-4396,2022-104BB,2025-07-29T03:16:39.244512,15.08838716,.0001473,53.2163,147.8717,74.4118,285.7036,0,U,53637,999,16145,.22176E-5,-.253E-5,0
STARLINK-4594,2022-104BC,2025-07-28T05:20:58.757856,15.08837883,.000145,53.2173,151.4269,84.3143,275.8014,0,U,53638,999,16234,.47352E-4,.466E-5,0
STARLINK-4422,2022-104BD,2025-07-28T13:39:07.738848,15.08837697,.0001357,53.2161,150.0267,84.9574,275.1573,0,U,53639,999,16222,.69332E-5,-.178E-5,0
STARLINK-4597,2022-104BE,2025-07-28T13:33:49.186368,15.08841354,.0001451,53.2173,150.0049,86.0218,274.0940,0,U,53640,999,16137,.29345E-4,.179E-5,0
STARLINK-4588,2022-104BF,2025-07-29T02:32:49.446240,15.08836996,.000143,53.2164,147.6880,91.4368,268.6788,0,U,53641,999,16145,.13186E-4,-.78E-6,0
STARLINK-4622,2022-105A,2025-07-28T15:01:57.160992,15.01252230,.0001945,97.6591,90.6398,74.4062,285.7376,0,U,53648,999,15962,.16154E-3,.2016E-4,0
STARLINK-4386,2022-105B,2025-07-29T05:23:06.253152,15.01265570,.0001997,97.6592,91.2320,85.0566,275.0886,0,U,53649,999,15998,.47641E-4,.553E-5,0
STARLINK-4380,2022-105C,2025-07-29T03:44:27.401280,15.01261230,.0002479,97.6585,91.1675,70.8913,289.2579,0,U,53650,999,15997,.51388E-4,.601E-5,0
STARLINK-4388,2022-105D,2025-07-29T03:41:47.376384,15.01260991,.0002171,97.6583,91.1672,89.1915,270.9558,0,U,53651,999,15997,.63067E-4,.751E-5,0
STARLINK-4374,2022-105E,2025-07-28T14:51:17.311104,15.01257998,.0002603,97.6575,90.6412,75.9105,284.2408,0,U,53652,999,15961,.12104E-3,.1496E-4,0
STARLINK-4390,2022-105F,2025-07-28T21:41:52.429920,15.01260205,.0003079,97.6567,90.8604,143.6118,216.5316,0,U,53653,999,15993,.12957E-4,.107E-5,0
STARLINK-4420,2022-105G,2025-07-28T14:43:17.887008,15.01258432,.0003246,97.6562,90.6376,69.1292,291.0279,0,U,53654,999,15961,-.24628E-3,-.3221E-4,0
STARLINK-4470,2022-105H,2025-07-28T16:24:36.965088,15.01260633,.0003407,97.6567,90.7066,65.9806,294.1775,0,U,53655,999,15990,.31111E-3,.394E-4,0
STARLINK-4466,2022-105J,2025-07-28T14:35:18.811968,15.01252598,.0003731,97.6553,90.6367,50.1824,309.9728,0,U,53656,999,15961,.10684E-3,.1313E-4,0
STARLINK-4469,2022-105K,2025-07-29T06:00:02.000160,15.16796775,.000195,97.6557,91.6311,86.0369,256.4296,0,U,53657,999,16001,.6929E-3,.13559E-3,0
