STARLINK-4608           
1 53621U 22104AK  25209.58633800 -.00000358  00000+0 -44063-5 0  9996
2 53621  53.2178 160.1164 0001522  88.5365 271.5801 15.08842488161807
STARLINK-4568           
1 53622U 22104AL  25209.35445631 -.00000318  00000+0 -18672-5 0  9998
2 53622  53.2177 160.8063 0001412  88.5970 271.5184 15.08836694161886
STARLINK-4573           
1 53623U 22104AM  25209.24777093  .00000916  00000+0  75644-4 0  9990
2 53623  53.2164 161.5575 0001287  77.4436 282.6700 15.08839372161864
STARLINK-4596           
1 53624U 22104AN  25209.56791602 -.00000003  00000+0  17904-4 0  9991
2 53624  53.2160 160.0008 0001308  84.8808 275.2334 15.08836123161238
STARLINK-4554           
1 53626U 22104AQ  25209.55686114  .00000138  00000+0  26784-4 0  9997
2 53626  53.2173 159.9335 0001515  84.2844 275.8321 15.08837928161920
STARLINK-4595           
1 53627U 22104AR  25210.16040552 -.00001201  00000+0 -57414-4 0  9995
2 53627  53.2182 157.3037 0001493  92.9144 267.2019 15.08824530161324
STARLINK-4600           
1 53628U 22104AS  25209.15205201 -.00000529  00000+0 -15160-4 0  9991
2 53628  53.2170 161.6727 0001585  89.9924 270.1250 15.08835742161866
STARLINK-4602           
1 53629U 22104AT  25209.29558650 -.00000127  00000+0  10115-4 0  9994
2 53629  53.2173 161.1427 0001375  84.5106 275.6043 15.08835006161887
STARLINK-4598           
1 53630U 22104AU  25210.19174940  .00000466  00000+0  47390-4 0  9993
2 53630  53.2166 147.5139 0001296  90.0867 270.0274 15.08838242161461
STARLINK-4599           
1 53631U 22104AV  25209.34708244  .00000312  00000+0  37695-4 0  9996
2 53631  53.2162 160.7567 0001426  83.3810 276.7344 15.08841286161898
STARLINK-4606           
1 53632U 22104AW  25209.12358152 -.00000208  00000+0  50497-5 0  9993
2 53632  53.2169 152.2219 0001631  74.7428 285.3744 15.08838343162322
STARLINK-4593           
1 53633U 22104AX  25209.12726709 -.00000221  00000+0  42124-5 0  9994
2 53633  53.2163 152.2446 0001483  57.5148 302.5988 15.08835594161991
STARLINK-4592           
1 53634U 22104AY  25210.10981181 -.00000236  00000+0  32600-5 0  9996
2 53634  53.2172 147.7162 0001402  92.3589 267.7563 15.08838795161451
STARLINK-4587           
1 53635U 22104AZ  25209.11990114 -.00001385  00000+0 -68926-4 0  9998
2 53635  53.2167 152.2007 0001430  85.6720 274.4435 15.08842227162323
STARLINK-4586           
1 53636U 22104BA  25210.10245677  .00023251  00000+0  14717-2 0  9998
2 53636  53.2185 147.6716 0001235  82.9348 277.1785 15.08901119161455
STARLINK-4396           
1 53637U 22104BB  25210.13656533 -.00000253  00000+0  22176-5 0  9998
2 53637  53.2163 147.8717 0001473  74.4118 285.7036 15.08838716161456
STARLINK-4594           
1 53638U 22104BC  25209.22290229  .00000466  00000+0  47352-4 0  9990
2 53638  53.2173 151.4269 0001450  84.3143 275.8014 15.08837883162343
STARLINK-4422           
1 53639U 22104BD  25209.56883957 -.00000178  00000+0  69332-5 0  9998
2 53639  53.2161 150.0267 0001357  84.9574 275.1573 15.08837697162227
STARLINK-4597           
1 53640U 22104BE  25209.56515262  .00000179  00000+0  29345-4 0  9990
2 53640  53.2173 150.0049 0001451  86.0218 274.0940 15.08841354161379
STARLINK-4588           
1 53641U 22104BF  25210.10612785 -.00000078  00000+0  13186-4 0  9996
2 53641  53.2164 147.6880 0001430  91.4368 268.6788 15.08836996161452
STARLINK-4622           
1 53648U 22105A   25209.62635603  .00002016  00000+0  16154-3 0  9993
2 53648  97.6591  90.6398 0001945  74.4062 285.7376 15.01252230159624
STARLINK-4386           
1 53649U 22105B   25210.22437793  .00000553  00000+0  47641-4 0  9992
2 53649  97.6592  91.2320 0001997  85.0566 275.0886 15.01265570159980
STARLINK-4380           
1 53650U 22105C   25210.15587270  .00000601  00000+0  51388-4 0  9999
2 53650  97.6585  91.1675 0002479  70.8913 289.2579 15.01261230159974
STARLINK-4388           
1 53651U 22105D   25210.15402056  .00000751  00000+0  63067-4 0  9991
2 53651  97.6583  91.1672 0002171  89.1915 270.9558 15.01260991159971
STARLINK-4374           
1 53652U 22105E   25209.61895036  .00001496  00000+0  12104-3 0  9997
2 53652  97.6575  90.6412 0002603  75.9105 284.2408 15.01257998159619
STARLINK-4390           
1 53653U 22105F   25209.90407905  .00000107  00000+0  12957-4 0  9999
2 53653  97.6567  90.8604 0003079 143.6118 216.5316 15.01260205159937
STARLINK-4420           
1 53654U 22105G   25209.61340147 -.00003221  00000+0 -24628-3 0  9991
2 53654  97.6562  90.6376 0003246  69.1292 291.0279 15.01258432159618
STARLINK-4470           
1 53655U 22105H   25209.68376117  .00003940  00000+0  31111-3 0  9996
2 53655  97.6567  90.7066 0003407  65.9806 294.1775 15.01260633159908
STARLINK-4466           
1 53656U 22105J   25209.60785662  .00001313  00000+0  10684-3 0  9992
2 53656  97.6553  90.6367 0003731  50.1824 309.9728 15.01252598159615
STARLINK-4469           
1 53657U 22105K   25210.25002315  .00013559  00000+0  69290-3 0  9995
2 53657  97.6557  91.6311 0001950  86.0369 256.4296 15.16796775160011
